CCSDS_OMM_VERS = 2.0
CREATION_DATE  = 
ORIGINATOR     = 

OBJECT_NAME    = STARLINK-35628
OBJECT_ID      = 2025-237K
CENTER_NAME    = EARTH
REF_FRAME      = TEME
TIME_SYSTEM    = UTC
MEAN_ELEMENT_THEORY = SGP/SGP4

EPOCH          = 2025-11-04T20:00:03.000384
MEAN_MOTION    = 15.74118065
ECCENTRICITY   = .000111
INCLINATION    = 53.1549
RA_OF_ASC_NODE = 267.9347
ARG_OF_PERICENTER = 112.1472
MEAN_ANOMALY   = 5.1638

EPHEMERIS_TYPE = 0
CLASSIFICATION_TYPE = U
NORAD_CAT_ID   = 66123
ELEMENT_SET_NO = 999
REV_AT_EPOCH   = 338
BSTAR          = .67547E-3
MEAN_MOTION_DOT = .99161E-3
MEAN_MOTION_DDOT = 0

CCSDS_OMM_VERS = 2.0
CREATION_DATE  = 
ORIGINATOR     = 

OBJECT_NAME    = STARLINK-35645
OBJECT_ID      = 2025-237L
CENTER_NAME    = EARTH
REF_FRAME      = TEME
TIME_SYSTEM    = UTC
MEAN_ELEMENT_THEORY = SGP/SGP4

EPOCH          = 2025-11-04T20:00:03.000384
MEAN_MOTION    = 15.74189133
ECCENTRICITY   = .0001051
INCLINATION    = 53.1555
RA_OF_ASC_NODE = 267.9307
ARG_OF_PERICENTER = 94.6427
MEAN_ANOMALY   = 24.5803

EPHEMERIS_TYPE = 0
CLASSIFICATION_TYPE = U
NORAD_CAT_ID   = 66124
ELEMENT_SET_NO = 999
REV_AT_EPOCH   = 338
BSTAR          = -.24123E-3
MEAN_MOTION_DOT = -.35807E-3
MEAN_MOTION_DDOT = 0

CCSDS_OMM_VERS = 2.0
CREATION_DATE  = 
ORIGINATOR     = 

OBJECT_NAME    = STARLINK-35649
OBJECT_ID      = 2025-237M
CENTER_NAME    = EARTH
REF_FRAME      = TEME
TIME_SYSTEM    = UTC
MEAN_ELEMENT_THEORY = SGP/SGP4

EPOCH          = 2025-11-04T20:00:03.000384
MEAN_MOTION    = 15.74150893
ECCENTRICITY   = .0001493
INCLINATION    = 53.1549
RA_OF_ASC_NODE = 267.9269
ARG_OF_PERICENTER = 96.3681
MEAN_ANOMALY   = 24.7720

EPHEMERIS_TYPE = 0
CLASSIFICATION_TYPE = U
NORAD_CAT_ID   = 66125
ELEMENT_SET_NO = 999
REV_AT_EPOCH   = 338
BSTAR          = .42837E-3
MEAN_MOTION_DOT = .62471E-3
MEAN_MOTION_DDOT = 0

CCSDS_OMM_VERS = 2.0
CREATION_DATE  = 
ORIGINATOR     = 

OBJECT_NAME    = STARLINK-35658
OBJECT_ID      = 2025-237N
CENTER_NAME    = EARTH
REF_FRAME      = TEME
TIME_SYSTEM    = UTC
MEAN_ELEMENT_THEORY = SGP/SGP4

EPOCH          = 2025-11-04T20:00:03.000384
MEAN_MOTION    = 15.74188106
ECCENTRICITY   = .0001286
INCLINATION    = 53.1544
RA_OF_ASC_NODE = 267.9221
ARG_OF_PERICENTER = 100.6801
MEAN_ANOMALY   = 22.3675

EPHEMERIS_TYPE = 0
CLASSIFICATION_TYPE = U
NORAD_CAT_ID   = 66126
ELEMENT_SET_NO = 999
REV_AT_EPOCH   = 338
BSTAR          = -.16025E-3
MEAN_MOTION_DOT = -.24031E-3
MEAN_MOTION_DDOT = 0

CCSDS_OMM_VERS = 2.0
CREATION_DATE  = 
ORIGINATOR     = 

OBJECT_NAME    = STARLINK-35629
OBJECT_ID      = 2025-237P
CENTER_NAME    = EARTH
REF_FRAME      = TEME
TIME_SYSTEM    = UTC
MEAN_ELEMENT_THEORY = SGP/SGP4

EPOCH          = 2025-11-04T20:00:03.000384
MEAN_MOTION    = 15.74187541
ECCENTRICITY   = .000047
INCLINATION    = 53.1554
RA_OF_ASC_NODE = 267.9186
ARG_OF_PERICENTER = 90.8835
MEAN_ANOMALY   = 34.0866

EPHEMERIS_TYPE = 0
CLASSIFICATION_TYPE = U
NORAD_CAT_ID   = 66127
ELEMENT_SET_NO = 999
REV_AT_EPOCH   = 338
BSTAR          = -.31031E-3
MEAN_MOTION_DOT = -.45822E-3
MEAN_MOTION_DDOT = 0

CCSDS_OMM_VERS = 2.0
CREATION_DATE  = 
ORIGINATOR     = 

OBJECT_NAME    = STARLINK-35612
OBJECT_ID      = 2025-237Q
CENTER_NAME    = EARTH
REF_FRAME      = TEME
TIME_SYSTEM    = UTC
MEAN_ELEMENT_THEORY = SGP/SGP4

EPOCH          = 2025-11-04T20:00:03.000384
MEAN_MOTION    = 15.74119047
ECCENTRICITY   = .0000823
INCLINATION    = 53.1553
RA_OF_ASC_NODE = 267.9142
ARG_OF_PERICENTER = 106.8563
MEAN_ANOMALY   = 20.0458

EPHEMERIS_TYPE = 0
CLASSIFICATION_TYPE = U
NORAD_CAT_ID   = 66128
ELEMENT_SET_NO = 999
REV_AT_EPOCH   = 338
BSTAR          = .10583E-2
MEAN_MOTION_DOT = .156802E-2
MEAN_MOTION_DDOT = 0

CCSDS_OMM_VERS = 2.0
CREATION_DATE  = 
ORIGINATOR     = 

OBJECT_NAME    = STARLINK-35632
OBJECT_ID      = 2025-237R
CENTER_NAME    = EARTH
REF_FRAME      = TEME
TIME_SYSTEM    = UTC
MEAN_ELEMENT_THEORY = SGP/SGP4

EPOCH          = 2025-11-04T20:00:03.000384
MEAN_MOTION    = 15.74181237
ECCENTRICITY   = .0001201
INCLINATION    = 53.1548
RA_OF_ASC_NODE = 267.9100
ARG_OF_PERICENTER = 91.4610
MEAN_ANOMALY   = 37.3458

EPHEMERIS_TYPE = 0
CLASSIFICATION_TYPE = U
NORAD_CAT_ID   = 66129
ELEMENT_SET_NO = 999
REV_AT_EPOCH   = 338
BSTAR          = .10573E-3
MEAN_MOTION_DOT = .14877E-3
MEAN_MOTION_DDOT = 0

CCSDS_OMM_VERS = 2.0
CREATION_DATE  = 
ORIGINATOR     = 

OBJECT_NAME    = STARLINK-35637
OBJECT_ID      = 2025-237S
CENTER_NAME    = EARTH
REF_FRAME      = TEME
TIME_SYSTEM    = UTC
MEAN_ELEMENT_THEORY = SGP/SGP4

EPOCH          = 2025-11-04T20:00:03.000384
MEAN_MOTION    = 15.74219905
ECCENTRICITY   = .0001531
INCLINATION    = 53.1549
RA_OF_ASC_NODE = 267.9061
ARG_OF_PERICENTER = 124.8625
MEAN_ANOMALY   = 5.7755

EPHEMERIS_TYPE = 0
CLASSIFICATION_TYPE = U
NORAD_CAT_ID   = 66130
ELEMENT_SET_NO = 999
REV_AT_EPOCH   = 338
BSTAR          = .29254E-3
MEAN_MOTION_DOT = .42488E-3
MEAN_MOTION_DDOT = 0

CCSDS_OMM_VERS = 2.0
CREATION_DATE  = 
ORIGINATOR     = 

OBJECT_NAME    = STARLINK-35630
OBJECT_ID      = 2025-237T
CENTER_NAME    = EARTH
REF_FRAME      = TEME
TIME_SYSTEM    = UTC
MEAN_ELEMENT_THEORY = SGP/SGP4

EPOCH          = 2025-11-04T20:00:03.000384
MEAN_MOTION    = 15.74191204
ECCENTRICITY   = .0001352
INCLINATION    = 53.1547
RA_OF_ASC_NODE = 267.9020
ARG_OF_PERICENTER = 110.2336
MEAN_ANOMALY   = 22.4065

EPHEMERIS_TYPE = 0
CLASSIFICATION_TYPE = U
NORAD_CAT_ID   = 66131
ELEMENT_SET_NO = 999
REV_AT_EPOCH   = 338
BSTAR          = -.21621E-3
MEAN_MOTION_DOT = -.32176E-3
MEAN_MOTION_DDOT = 0

CCSDS_OMM_VERS = 2.0
CREATION_DATE  = 
ORIGINATOR     = 

OBJECT_NAME    = STARLINK-34412
OBJECT_ID      = 2025-237U
CENTER_NAME    = EARTH
REF_FRAME      = TEME
TIME_SYSTEM    = UTC
MEAN_ELEMENT_THEORY = SGP/SGP4

EPOCH          = 2025-11-04T20:00:03.000384
MEAN_MOTION    = 15.74215553
ECCENTRICITY   = .0000723
INCLINATION    = 53.1552
RA_OF_ASC_NODE = 267.8987
ARG_OF_PERICENTER = 92.6606
MEAN_ANOMALY   = 41.7983

EPHEMERIS_TYPE = 0
CLASSIFICATION_TYPE = U
NORAD_CAT_ID   = 66132
ELEMENT_SET_NO = 999
REV_AT_EPOCH   = 329
BSTAR          = .30729E-3
MEAN_MOTION_DOT = .44665E-3
MEAN_MOTION_DDOT = 0

CCSDS_OMM_VERS = 2.0
CREATION_DATE  = 
ORIGINATOR     = 

OBJECT_NAME    = STARLINK-35520
OBJECT_ID      = 2025-237V
CENTER_NAME    = EARTH
REF_FRAME      = TEME
TIME_SYSTEM    = UTC
MEAN_ELEMENT_THEORY = SGP/SGP4

EPOCH          = 2025-11-04T20:00:03.000384
MEAN_MOTION    = 15.74216300
ECCENTRICITY   = .0000683
INCLINATION    = 53.1556
RA_OF_ASC_NODE = 267.8939
ARG_OF_PERICENTER = 119.4897
MEAN_ANOMALY   = 16.9571

EPHEMERIS_TYPE = 0
CLASSIFICATION_TYPE = U
NORAD_CAT_ID   = 66133
ELEMENT_SET_NO = 999
REV_AT_EPOCH   = 338
BSTAR          = -.54335E-3
MEAN_MOTION_DOT = -.79547E-3
MEAN_MOTION_DDOT = 0

CCSDS_OMM_VERS = 2.0
CREATION_DATE  = 
ORIGINATOR     = 

OBJECT_NAME    = STARLINK-35525
OBJECT_ID      = 2025-237W
CENTER_NAME    = EARTH
REF_FRAME      = TEME
TIME_SYSTEM    = UTC
MEAN_ELEMENT_THEORY = SGP/SGP4

EPOCH          = 2025-11-04T20:00:03.000384
MEAN_MOTION    = 15.74215117
ECCENTRICITY   = .0001209
INCLINATION    = 53.1559
RA_OF_ASC_NODE = 267.8899
ARG_OF_PERICENTER = 106.8810
MEAN_ANOMALY   = 31.4956

EPHEMERIS_TYPE = 0
CLASSIFICATION_TYPE = U
NORAD_CAT_ID   = 66134
ELEMENT_SET_NO = 999
REV_AT_EPOCH   = 338
BSTAR          = -.44963E-3
MEAN_MOTION_DOT = -.66039E-3
MEAN_MOTION_DDOT = 0

