STARLINK-35628          
1 66123U 25237K   25308.83336806  .00099161  00000+0  67547-3 0  9999
2 66123  53.1549 267.9347 0001110 112.1472   5.1638 15.74118065  3381
STARLINK-35645          
1 66124U 25237L   25308.83336806 -.00035807  00000+0 -24123-3 0  9992
2 66124  53.1555 267.9307 0001051  94.6427  24.5803 15.74189133  3386
STARLINK-35649          
1 66125U 25237M   25308.83336806  .00062471  00000+0  42837-3 0  9990
2 66125  53.1549 267.9269 0001493  96.3681  24.7720 15.74150893  3389
STARLINK-35658          
1 66126U 25237N   25308.83336806 -.00024031  00000+0 -16025-3 0  9993
2 66126  53.1544 267.9221 0001286 100.6801  22.3675 15.74188106  3387
STARLINK-35629          
1 66127U 25237P   25308.83336806 -.00045822  00000+0 -31031-3 0  9999
2 66127  53.1554 267.9186 0000470  90.8835  34.0866 15.74187541  3384
STARLINK-35612          
1 66128U 25237Q   25308.83336806  .00156802  00000+0  10583-2 0  9997
2 66128  53.1553 267.9142 0000823 106.8563  20.0458 15.74119047  3382
STARLINK-35632          
1 66129U 25237R   25308.83336806  .00014877  00000+0  10573-3 0  9993
2 66129  53.1548 267.9100 0001201  91.4610  37.3458 15.74181237  3385
STARLINK-35637          
1 66130U 25237S   25308.83336806  .00042488  00000+0  29254-3 0  9990
2 66130  53.1549 267.9061 0001531 124.8625   5.7755 15.74219905  3380
STARLINK-35630          
1 66131U 25237T   25308.83336806 -.00032176  00000+0 -21621-3 0  9996
2 66131  53.1547 267.9020 0001352 110.2336  22.4065 15.74191204  3384
STARLINK-34412          
1 66132U 25237U   25308.83336806  .00044665  00000+0  30729-3 0  9990
2 66132  53.1552 267.8987 0000723  92.6606  41.7983 15.74215553  3293
STARLINK-35520          
1 66133U 25237V   25308.83336806 -.00079547  00000+0 -54335-3 0  9999
2 66133  53.1556 267.8939 0000683 119.4897  16.9571 15.74216300  3388
STARLINK-35525          
1 66134U 25237W   25308.83336806 -.00066039  00000+0 -44963-3 0  9998
2 66134  53.1559 267.8899 0001209 106.8810  31.4956 15.74215117  3381
